GLOBALSTAR M045         
1 25676U 99019A   24239.89578367 -.00000091  00000+0  18705-4 0  9992
2 25676  51.9972  64.0500 0001102  60.7833  85.3390 12.27043379157264
GLOBALSTAR M019         
1 25677U 99019B   24240.12521421 -.00000016  00000+0  77557-3 0  9996
2 25677  51.9865 173.0721 0001397  67.7916 304.4862 12.13860102149623
GLOBALSTAR M044         
1 25678U 99019C   24239.90926705 -.00000071  00000+0  18050-3 0  9999
2 25678  51.9960  88.2182 0005976 185.4869 188.5438 11.90237197136262
GLOBALSTAR M042         
1 25679U 99019D   24240.54446025 -.00000074  00000+0  16771-3 0  9995
2 25679  52.0004 159.9051 0003449  51.0929 120.3269 12.22067362149422
GLOBALSTAR M025         
1 25770U 99031A   24239.93757375 -.00000048  00000+0  59943-3 0  9994
2 25770  51.9802 120.9206 0002113  24.6794  99.5743 11.22553156448663
GLOBALSTAR M049         
1 25771U 99031B   24239.89563810  .00000007  00000+0  24908-2 0  9995
2 25771  51.9863 140.9903 0002490 247.3047 112.7486 11.12107981 84680
GLOBALSTAR M047         
1 25772U 99031C   24239.90776357 -.00000045  00000+0  67390-3 0  9996
2 25772  51.9818 166.0471 0016269 115.5089 244.7401 11.31922283437788
GLOBALSTAR M052         
1 25773U 99031D   24239.77287792 -.00000052  00000+0  44919-3 0  9992
2 25773  51.9833 254.0880 0002448  41.1642 129.6504 11.15053471445668
